OOV-CUBE (TUBSAT-30)    
1 60240U 24128F   26061.77349682  .00004271  00000+0  32804-3 0  9993
2 60240  61.9933 236.4815 0055105 111.0594 249.6402 15.02184323 90129
